[{"OBJECT_NAME":"ONEWEB-0012","OBJECT_ID":"2019-010A","EPOCH":"2026-01-08T04:53:09.160800","MEAN_MOTION":13.16593683,"ECCENTRICITY":0.00019336,"INCLINATION":87.9027,"RA_OF_ASC_NODE":260.6431,"ARG_OF_PERICENTER":73.5866,"MEAN_ANOMALY":286.5478,"EPHEMERIS_TYPE":0,"CLASSIFICATION_TYPE":"U","NORAD_CAT_ID":44057,"ELEMENT_SET_NO":999,"REV_AT_EPOCH":33051,"BSTAR":7.3683149e-5,"MEAN_MOTION_DOT":4.1e-7,"MEAN_MOTION_DDOT":0},{"OBJECT_NAME":"ONEWEB-0010","OBJECT_ID":"2019-010B","EPOCH":"2026-01-08T05:29:38.110848","MEAN_MOTION":13.16595144,"ECCENTRICITY":0.00012342,"INCLINATION":87.9037,"RA_OF_ASC_NODE":260.6301,"ARG_OF_PERICENTER":64.7023,"MEAN_ANOMALY":295.4236,"EPHEMERIS_TYPE":0,"CLASSIFICATION_TYPE":"U","NORAD_CAT_ID":44058,"ELEMENT_SET_NO":999,"REV_AT_EPOCH":33056,"BSTAR":0.00053223106,"MEAN_MOTION_DOT":2.16e-6,"MEAN_MOTION_DDOT":0},{"OBJECT_NAME":"ONEWEB-0008","OBJECT_ID":"2019-010C","EPOCH":"2026-01-08T06:06:06.699744","MEAN_MOTION":13.16594508,"ECCENTRICITY":0.00015405,"INCLINATION":87.9038,"RA_OF_ASC_NODE":260.6222,"ARG_OF_PERICENTER":83.3344,"MEAN_ANOMALY":276.7962,"EPHEMERIS_TYPE":0,"CLASSIFICATION_TYPE":"U","NORAD_CAT_ID":44059,"ELEMENT_SET_NO":999,"REV_AT_EPOCH":33068,"BSTAR":-0.00012271385,"MEAN_MOTION_DOT":-3.4e-7,"MEAN_MOTION_DDOT":0},{"OBJECT_NAME":"ONEWEB-0007","OBJECT_ID":"2019-010D","EPOCH":"2026-01-08T07:32:45.508704","MEAN_MOTION":13.15550209,"ECCENTRICITY":0.00017405,"INCLINATION":87.901,"RA_OF_ASC_NODE":291.1346,"ARG_OF_PERICENTER":63.3844,"MEAN_ANOMALY":296.7464,"EPHEMERIS_TYPE":0,"CLASSIFICATION_TYPE":"U","NORAD_CAT_ID":44060,"ELEMENT_SET_NO":999,"REV_AT_EPOCH":33035,"BSTAR":0.00044117507,"MEAN_MOTION_DOT":1.79e-6,"MEAN_MOTION_DDOT":0},{"OBJECT_NAME":"ONEWEB-0006","OBJECT_ID":"2019-010E","EPOCH":"2026-01-08T07:38:28.188384","MEAN_MOTION":13.15549596,"ECCENTRICITY":0.00015367,"INCLINATION":87.9017,"RA_OF_ASC_NODE":291.0822,"ARG_OF_PERICENTER":67.5173,"MEAN_ANOMALY":292.612,"EPHEMERIS_TYPE":0,"CLASSIFICATION_TYPE":"U","NORAD_CAT_ID":44061,"ELEMENT_SET_NO":999,"REV_AT_EPOCH":33040,"BSTAR":0.00045869899,"MEAN_MOTION_DOT":1.86e-6,"MEAN_MOTION_DDOT":0},{"OBJECT_NAME":"ONEWEB-0011","OBJECT_ID":"2019-010F","EPOCH":"2026-01-08T06:52:49.675584","MEAN_MOTION":13.15547658,"ECCENTRICITY":0.00014956,"INCLINATION":87.9013,"RA_OF_ASC_NODE":291.0976,"ARG_OF_PERICENTER":80.3313,"MEAN_ANOMALY":279.7986,"EPHEMERIS_TYPE":0,"CLASSIFICATION_TYPE":"U","NORAD_CAT_ID":44062,"ELEMENT_SET_NO":999,"REV_AT_EPOCH":33039,"BSTAR":5.3506509e-5,"MEAN_MOTION_DOT":3.3e-7,"MEAN_MOTION_DDOT":0},{"OBJECT_NAME":"ONEWEB-0013","OBJECT_ID":"2020-008A","EPOCH":"2026-01-08T05:47:29.509728","MEAN_MOTION":13.09447538,"ECCENTRICITY":0.00026291,"INCLINATION":87.8499,"RA_OF_ASC_NODE":85.1377,"ARG_OF_PERICENTER":92.0219,"MEAN_ANOMALY":268.1209,"EPHEMERIS_TYPE":0,"CLASSIFICATION_TYPE":"U","NORAD_CAT_ID":45131,"ELEMENT_SET_NO":999,"REV_AT_EPOCH":28513,"BSTAR":-0.0016789199,"MEAN_MOTION_DOT":-5.66e-6,"MEAN_MOTION_DDOT":0},{"OBJECT_NAME":"ONEWEB-0017","OBJECT_ID":"2020-008B","EPOCH":"2026-01-08T04:24:11.211840","MEAN_MOTION":13.1037225,"ECCENTRICITY":0.0001518,"INCLINATION":87.8779,"RA_OF_ASC_NODE":68.1698,"ARG_OF_PERICENTER":101.0558,"MEAN_ANOMALY":259.0741,"EPHEMERIS_TYPE":0,"CLASSIFICATION_TYPE":"U","NORAD_CAT_ID":45132,"ELEMENT_SET_NO":999,"REV_AT_EPOCH":28699,"BSTAR":-0.0016355957,"MEAN_MOTION_DOT":-5.58e-6,"MEAN_MOTION_DDOT":0},{"OBJECT_NAME":"ONEWEB-0020","OBJECT_ID":"2020-008C","EPOCH":"2026-01-08T05:31:08.923296","MEAN_MOTION":13.10372492,"ECCENTRICITY":0.00017702,"INCLINATION":87.8778,"RA_OF_ASC_NODE":68.1483,"ARG_OF_PERICENTER":106.8246,"MEAN_ANOMALY":253.3075,"EPHEMERIS_TYPE":0,"CLASSIFICATION_TYPE":"U","NORAD_CAT_ID":45133,"ELEMENT_SET_NO":999,"REV_AT_EPOCH":28739,"BSTAR":0.0018331855,"MEAN_MOTION_DOT":6.53e-6,"MEAN_MOTION_DDOT":0},{"OBJECT_NAME":"ONEWEB-0021","OBJECT_ID":"2020-008D","EPOCH":"2026-01-08T04:02:41.288352","MEAN_MOTION":13.10371618,"ECCENTRICITY":0.00017969,"INCLINATION":87.8773,"RA_OF_ASC_NODE":68.1889,"ARG_OF_PERICENTER":97.84,"MEAN_ANOMALY":262.2931,"EPHEMERIS_TYPE":0,"CLASSIFICATION_TYPE":"U","NORAD_CAT_ID":45134,"ELEMENT_SET_NO":999,"REV_AT_EPOCH":28769,"BSTAR":0.00072009223,"MEAN_MOTION_DOT":2.64e-6,"MEAN_MOTION_DDOT":0},{"OBJECT_NAME":"ONEWEB-0023","OBJECT_ID":"2020-008F","EPOCH":"2026-01-08T04:18:12.510144","MEAN_MOTION":13.10369971,"ECCENTRICITY":0.00019815,"INCLINATION":87.8774,"RA_OF_ASC_NODE":68.167,"ARG_OF_PERICENTER":98.672,"MEAN_ANOMALY":261.4632,"EPHEMERIS_TYPE":0,"CLASSIFICATION_TYPE":"U","NORAD_CAT_ID":45136,"ELEMENT_SET_NO":999,"REV_AT_EPOCH":28712,"BSTAR":-0.0012639862,"MEAN_MOTION_DOT":-4.29e-6,"MEAN_MOTION_DDOT":0},{"OBJECT_NAME":"ONEWEB-0024","OBJECT_ID":"2020-008G","EPOCH":"2026-01-08T05:28:45.532128","MEAN_MOTION":13.10372633,"ECCENTRICITY":0.00017033,"INCLINATION":87.8796,"RA_OF_ASC_NODE":68.133,"ARG_OF_PERICENTER":100.0555,"MEAN_ANOMALY":260.0764,"EPHEMERIS_TYPE":0,"CLASSIFICATION_TYPE":"U","NORAD_CAT_ID":45137,"ELEMENT_SET_NO":999,"REV_AT_EPOCH":28729,"BSTAR":0.0018652285,"MEAN_MOTION_DOT":6.64e-6,"MEAN_MOTION_DDOT":0},{"OBJECT_NAME":"ONEWEB-0025","OBJECT_ID":"2020-008H","EPOCH":"2026-01-08T04:03:53.028864","MEAN_MOTION":13.10370145,"ECCENTRICITY":0.00020643,"INCLINATION":87.8783,"RA_OF_ASC_NODE":68.1451,"ARG_OF_PERICENTER":96.5997,"MEAN_ANOMALY":263.5365,"EPHEMERIS_TYPE":0,"CLASSIFICATION_TYPE":"U","NORAD_CAT_ID":45138,"ELEMENT_SET_NO":999,"REV_AT_EPOCH":28761,"BSTAR":-0.00028115649,"MEAN_MOTION_DOT":-8.5e-7,"MEAN_MOTION_DDOT":0},{"OBJECT_NAME":"ONEWEB-0026","OBJECT_ID":"2020-008J","EPOCH":"2026-01-08T02:06:37.626336","MEAN_MOTION":13.11418521,"ECCENTRICITY":0.00016313,"INCLINATION":87.883,"RA_OF_ASC_NODE":52.9398,"ARG_OF_PERICENTER":100.8244,"MEAN_ANOMALY":259.3068,"EPHEMERIS_TYPE":0,"CLASSIFICATION_TYPE":"U","NORAD_CAT_ID":45139,"ELEMENT_SET_NO":999,"REV_AT_EPOCH":29012,"BSTAR":-1.3606903e-5,"MEAN_MOTION_DOT":8.0e-8,"MEAN_MOTION_DDOT":0},{"OBJECT_NAME":"ONEWEB-0028","OBJECT_ID":"2020-008K","EPOCH":"2026-01-08T02:54:15.143040","MEAN_MOTION":13.11415466,"ECCENTRICITY":0.00023535,"INCLINATION":87.8823,"RA_OF_ASC_NODE":52.9455,"ARG_OF_PERICENTER":90.1866,"MEAN_ANOMALY":269.9531,"EPHEMERIS_TYPE":0,"CLASSIFICATION_TYPE":"U","NORAD_CAT_ID":45140,"ELEMENT_SET_NO":999,"REV_AT_EPOCH":28764,"BSTAR":0.00053586644,"MEAN_MOTION_DOT":2.03e-6,"MEAN_MOTION_DDOT":0},{"OBJECT_NAME":"ONEWEB-0032","OBJECT_ID":"2020-008L","EPOCH":"2026-01-08T04:26:34.236672","MEAN_MOTION":13.10372175,"ECCENTRICITY":0.00019523,"INCLINATION":87.8782,"RA_OF_ASC_NODE":68.1697,"ARG_OF_PERICENTER":99.0591,"MEAN_ANOMALY":261.0757,"EPHEMERIS_TYPE":0,"CLASSIFICATION_TYPE":"U","NORAD_CAT_ID":45141,"ELEMENT_SET_NO":999,"REV_AT_EPOCH":28734,"BSTAR":-0.0016502572,"MEAN_MOTION_DOT":-5.63e-6,"MEAN_MOTION_DDOT":0},{"OBJECT_NAME":"ONEWEB-0033","OBJECT_ID":"2020-008M","EPOCH":"2026-01-08T03:50:44.780928","MEAN_MOTION":13.10371648,"ECCENTRICITY":0.00012675,"INCLINATION":87.8775,"RA_OF_ASC_NODE":68.186,"ARG_OF_PERICENTER":108.075,"MEAN_ANOMALY":252.0515,"EPHEMERIS_TYPE":0,"CLASSIFICATION_TYPE":"U","NORAD_CAT_ID":45142,"ELEMENT_SET_NO":999,"REV_AT_EPOCH":28725,"BSTAR":0.0016679134,"MEAN_MOTION_DOT":5.95e-6,"MEAN_MOTION_DDOT":0}]
