ONEWEB-0012             
1 44057U 19010A   26008.20357825  .00000041  00000+0  73683-4 0  9994
2 44057  87.9027 260.6431 0001933  73.5866 286.5478 13.16593683330515
ONEWEB-0010             
1 44058U 19010B   26008.22891332  .00000216  00000+0  53223-3 0  9994
2 44058  87.9037 260.6301 0001234  64.7023 295.4236 13.16595144330564
ONEWEB-0008             
1 44059U 19010C   26008.25424421 -.00000034  00000+0 -12271-3 0  9997
2 44059  87.9038 260.6222 0001540  83.3344 276.7962 13.16594508330685
ONEWEB-0007             
1 44060U 19010D   26008.31441561  .00000179  00000+0  44118-3 0  9993
2 44060  87.9010 291.1346 0001740  63.3844 296.7464 13.15550209330350
ONEWEB-0006             
1 44061U 19010E   26008.31838181  .00000186  00000+0  45870-3 0  9996
2 44061  87.9017 291.0822 0001536  67.5173 292.6120 13.15549596330407
ONEWEB-0011             
1 44062U 19010F   26008.28668606  .00000033  00000+0  53507-4 0  9994
2 44062  87.9013 291.0976 0001495  80.3313 279.7986 13.15547658330398
ONEWEB-0013             
1 45131U 20008A   26008.24131377 -.00000566  00000+0 -16789-2 0  9999
2 45131  87.8499  85.1377 0002629  92.0219 268.1209 13.09447538285135
ONEWEB-0017             
1 45132U 20008B   26008.18346310 -.00000558  00000+0 -16356-2 0  9999
2 45132  87.8779  68.1698 0001518 101.0558 259.0741 13.10372250286992
ONEWEB-0020             
1 45133U 20008C   26008.22996439  .00000653  00000+0  18332-2 0  9998
2 45133  87.8778  68.1483 0001770 106.8246 253.3075 13.10372492287391
ONEWEB-0021             
1 45134U 20008D   26008.16853343  .00000264  00000+0  72009-3 0  9998
2 45134  87.8773  68.1889 0001796  97.8400 262.2931 13.10371618287698
ONEWEB-0023             
1 45136U 20008F   26008.17931146 -.00000429  00000+0 -12640-2 0  9998
2 45136  87.8774  68.1670 0001981  98.6720 261.4632 13.10369971287125
ONEWEB-0024             
1 45137U 20008G   26008.22830477  .00000664  00000+0  18652-2 0  9998
2 45137  87.8796  68.1330 0001703 100.0555 260.0764 13.10372633287297
ONEWEB-0025             
1 45138U 20008H   26008.16936376 -.00000085  00000+0 -28116-3 0  9993
2 45138  87.8783  68.1451 0002064  96.5997 263.5365 13.10370145287615
ONEWEB-0026             
1 45139U 20008J   26008.08793549  .00000008  00000+0 -13607-4 0  9992
2 45139  87.8830  52.9398 0001631 100.8244 259.3068 13.11418521290128
ONEWEB-0028             
1 45140U 20008K   26008.12100860  .00000203  00000+0  53587-3 0  9993
2 45140  87.8823  52.9455 0002353  90.1866 269.9531 13.11415466287649
ONEWEB-0032             
1 45141U 20008L   26008.18511848 -.00000563  00000+0 -16503-2 0  9999
2 45141  87.8782  68.1697 0001952  99.0591 261.0757 13.10372175287346
ONEWEB-0033             
1 45142U 20008M   26008.16024052  .00000595  00000+0  16679-2 0  9991
2 45142  87.8775  68.1860 0001267 108.0750 252.0515 13.10371648287254
